NORAD_CAT_ID,OBJECT_NAME,OBJECT_TYPE,EPOCH,MEAN_MOTION,ECCENTRICITY,INCLINATION,RA_OF_ASC_NODE,ARG_OF_PERICENTER,MEAN_ANOMALY,BSTAR,MEAN_MOTION_DOT,MEAN_MOTION_DDOT,TLE_LINE0,TLE_LINE1,TLE_LINE2,SEMIMAJOR_AXIS,PERIOD,APOGEE,PERIGEE,DECAYED
55633.0,STARLINK-5498,PAYLOAD,2023-12-12 13:55:04,14.98331398,0.0003097,69.9997,107.1886,265.9206,94.1599,-4.0854e-05,-5.8e-06,0.0,0 STARLINK-5498,1 55633U 23021F   23346.57990984 -.00000580  00000-0 -40854-4 0  9999,2 55633  69.9997 107.1886 0003097 265.9206  94.1599 14.98331398 45750,6950.189,96.107,574.206,569.901,0.0
55633.0,STARLINK-5498,PAYLOAD,2023-12-12 17:07:20,14.98334139,0.0002866,69.9999,106.8525,250.2661,109.8189,-3.4848e-05,-5.09e-06,0.0,0 STARLINK-5498,1 55633U 23021F   23346.71342703 -.00000509  00000-0 -34848-4 0  9992,2 55633  69.9999 106.8525 0002866 250.2661 109.8189 14.98334139 45477,6950.18,96.107,574.037,570.053,0.0
55633.0,STARLINK-5498,PAYLOAD,2023-12-13 13:57:04,14.98329673,0.0003059,69.9996,104.6633,265.2299,94.8511,3.3762e-05,3.1e-06,0.0,0 STARLINK-5498,1 55633U 23021F   23347.58130780  .00000310  00000-0  33762-4 0  9990,2 55633  69.9996 104.6633 0003059 265.2299  94.8511 14.98329673 45905,6950.194,96.107,574.185,569.933,0.0
55633.0,STARLINK-5498,PAYLOAD,2023-12-13 17:09:21,14.98329952,0.0003003,69.9996,104.3265,263.0925,96.9893,4.9409e-05,4.97e-06,0.0,0 STARLINK-5498,1 55633U 23021F   23347.71482710  .00000497  00000-0  49409-4 0  9999,2 55633  69.9996 104.3265 0003003 263.0925  96.9893 14.98329952 45629,6950.193,96.107,574.145,569.971,0.0
55633.0,STARLINK-5498,PAYLOAD,2023-12-14 13:59:05,14.98330262,0.0002855,70.0002,102.1392,253.5719,106.5127,2.3778e-05,1.91e-06,0.0,0 STARLINK-5498,1 55633U 23021F   23348.58270748  .00000191  00000-0  23778-4 0  9993,2 55633  70.0002 102.1392 0002855 253.5719 106.5127 14.98330262 46058,6950.192,96.107,574.041,570.073,0.0
55633.0,STARLINK-5498,PAYLOAD,2023-12-14 17:11:24,14.98295046,0.0003058,70.0004,101.8024,265.5763,94.5047,-0.00034364,-4.187e-05,0.0,0 STARLINK-5498,1 55633U 23021F   23348.71625741 -.00004187  00000-0 -34364-3 0  9998,2 55633  70.0004 101.8024 0003058 265.5763  94.5047 14.98295046 45771,6950.301,96.109,574.291,570.041,0.0
55633.0,STARLINK-5498,PAYLOAD,2023-12-15 12:24:59,14.98325676,0.0002831,70.0005,99.7829,257.3247,102.7596,-2.291e-05,-3.66e-06,0.0,0 STARLINK-5498,1 55633U 23021F   23349.51735235 -.00000366  00000-0 -22910-4 0  9997,2 55633  70.0005  99.7829 0002831 257.3247 102.7596 14.98325676 45891,6950.206,96.107,574.039,570.104,0.0
55633.0,STARLINK-5498,PAYLOAD,2023-12-15 14:01:07,14.98324327,0.0002694,70.001,99.6151,250.0336,110.0533,-2.5782e-05,-4e-06,0.0,0 STARLINK-5498,1 55633U 23021F   23349.58411333 -.00000400  00000-0 -25782-4 0  9993,2 55633  70.0010  99.6151 0002694 250.0336 110.0533 14.98324327 46201,6950.21,96.107,573.948,570.203,0.0
55633.0,STARLINK-5498,PAYLOAD,2023-12-15 17:13:23,14.98328739,0.0002764,70.0001,99.2773,278.187,81.8975,1.2578e-05,5.7e-07,0.0,0 STARLINK-5498,1 55633U 23021F   23349.71763233  .00000057  00000-0  12578-4 0  9992,2 55633  70.0001  99.2773 0002764 278.1870  81.8975 14.98328739 46227,6950.197,96.107,573.983,570.141,0.0
55633.0,STARLINK-5498,PAYLOAD,2023-12-16 12:27:00,14.98327829,0.0002994,70.0001,97.2579,261.2684,98.8136,2.2178e-07,-9e-07,0.0,0 STARLINK-5498,1 55633U 23021F   23350.51875230 -.00000090  00000-0  22178-6 0  9990,2 55633  70.0001  97.2579 0002994 261.2684  98.8136 14.98327829 46046,6950.2,96.107,574.145,569.984,0.0
55633.0,STARLINK-5498,PAYLOAD,2023-12-16 14:03:08,14.9832897,0.0002779,70.0004,97.0898,255.6675,104.4176,1.1044e-05,3.9e-07,0.0,0 STARLINK-5498,1 55633U 23021F   23350.58551183  .00000039  00000-0  11044-4 0  9995,2 55633  70.0004  97.0898 0002779 255.6675 104.4176 14.98328970 46359,6950.196,96.107,573.993,570.13,0.0
55633.0,STARLINK-5498,PAYLOAD,2023-12-16 17:15:24,14.98333222,0.0003165,69.9995,96.7524,266.4169,93.6628,1.9861e-05,1.44e-06,0.0,0 STARLINK-5498,1 55633U 23021F   23350.71902897  .00000144  00000-0  19861-4 0  9994,2 55633  69.9995  96.7524 0003165 266.4169  93.6628 14.98333222 46374,6950.183,96.107,574.248,569.848,0.0
55633.0,STARLINK-5498,PAYLOAD,2023-12-17 14:05:08,14.98338501,0.0002665,70.0004,94.5644,262.6527,97.433,-3.5994e-05,-5.22e-06,0.0,0 STARLINK-5498,1 55633U 23021F   23351.58690729 -.00000522  00000-0 -35994-4 0  9995,2 55633  70.0004  94.5644 0002665 262.6527  97.4330 14.98338501 46509,6950.167,96.106,573.884,570.179,0.0
55633.0,STARLINK-5498,PAYLOAD,2023-12-17 17:17:24,14.98333645,0.0002857,70.0005,94.2283,261.3166,98.767,0.00012426,1.39e-05,0.0,0 STARLINK-5498,1 55633U 23021F   23351.72042580  .00001390  00000-0  12426-3 0  9993,2 55633  70.0005  94.2283 0002857 261.3166  98.7670 14.98333645 46228,6950.182,96.107,574.032,570.061,0.0
55633.0,STARLINK-5498,PAYLOAD,2023-12-18 14:07:09,14.98339075,0.0002855,70.0005,92.0398,261.1713,98.9123,0.00011227,1.247e-05,0.0,0 STARLINK-5498,1 55633U 23021F   23352.58829965  .00001247  00000-0  11227-3 0  9997,2 55633  70.0005  92.0398 0002855 261.1713  98.9123 14.98339075 46650,6950.165,96.106,574.014,570.046,0.0
55633.0,STARLINK-5498,PAYLOAD,2023-12-18 17:19:24,14.9834137,0.0002844,70.0006,91.7035,260.9314,99.1523,0.00013409,1.508e-05,0.0,0 STARLINK-5498,1 55633U 23021F   23352.72181685  .00001508  00000-0  13409-3 0  9997,2 55633  70.0006  91.7035 0002844 260.9314  99.1523 14.98341370 46374,6950.158,96.106,573.999,570.046,0.0
55633.0,STARLINK-5498,PAYLOAD,2023-12-19 10:56:54,14.98327397,0.000254,70.003,89.8579,236.2635,123.8283,-3.6788e-05,-5.32e-06,0.0,0 STARLINK-5498,1 55633U 23021F   23353.45619046 -.00000532  00000-0 -36788-4 0  9999,2 55633  70.0030  89.8579 0002540 236.2635 123.8283 14.98327397 46480,6950.201,96.107,573.831,570.301,0.0
55633.0,STARLINK-5498,PAYLOAD,2023-12-19 14:09:11,14.98325444,0.0002768,70.0009,89.5169,243.9923,116.0951,-8.9754e-05,-1.164e-05,0.0,0 STARLINK-5498,1 55633U 23021F   23353.58971248 -.00001164  00000-0 -89754-4 0  9991,2 55633  70.0009  89.5169 0002768 243.9923 116.0951 14.98325444 46808,6950.207,96.107,573.996,570.148,0.0
55633.0,STARLINK-5498,PAYLOAD,2023-12-20 10:58:55,14.98328636,0.000305,69.9997,87.3257,267.0844,92.9966,-7.0414e-05,-9.33e-06,0.0,0 STARLINK-5498,1 55633U 23021F   23354.45759143 -.00000933  00000-0 -70414-4 0  9992,2 55633  69.9997  87.3257 0003050 267.0844  92.9966 14.98328636 46634,6950.197,96.107,574.182,569.942,0.0
55633.0,STARLINK-5498,PAYLOAD,2023-12-20 14:11:11,14.98331812,0.0002893,70.0002,86.9899,262.2431,97.84,-3.0384e-05,-4.56e-06,0.0,0 STARLINK-5498,1 55633U 23021F   23354.59110831 -.00000456  00000-0 -30384-4 0  9994,2 55633  70.0002  86.9899 0002893 262.2431  97.8400 14.98331812 46956,6950.187,96.107,574.063,570.042,0.0
55633.0,STARLINK-5498,PAYLOAD,2023-12-20 15:47:19,14.98333105,0.0002783,70.0004,86.8217,257.6262,102.4585,-1.9691e-05,-3.28e-06,0.0,0 STARLINK-5498,1 55633U 23021F   23354.65786707 -.00000328  00000-0 -19691-4 0  9998,2 55633  70.0004  86.8217 0002783 257.6262 102.4585 14.98333105 46964,6950.183,96.107,573.983,570.114,0.0
55633.0,STARLINK-5498,PAYLOAD,2023-12-21 14:13:12,14.98323514,0.0002298,70.0025,84.468,228.9796,131.1164,0.00018072,2.064e-05,0.0,0 STARLINK-5498,1 55633U 23021F   23355.59251006  .00002064  00000-0  18072-3 0  9999,2 55633  70.0025  84.4680 0002298 228.9796 131.1164 14.98323514 47101,6950.213,96.107,573.675,570.481,0.0
55633.0,STARLINK-5498,PAYLOAD,2023-12-21 15:49:20,14.9832653,0.0002008,70.002,84.298,248.851,111.2435,0.00019265,2.206e-05,0.0,0 STARLINK-5498,1 55633U 23021F   23355.65926925  .00002206  00000-0  19265-3 0  9998,2 55633  70.0020  84.2980 0002008 248.8510 111.2435 14.98326530 46819,6950.204,96.107,573.464,570.673,0.0
55633.0,STARLINK-5498,PAYLOAD,2023-12-22 14:15:15,14.98307247,0.000255,70.0018,81.9424,254.4308,105.6569,-0.00016495,-2.059e-05,0.0,0 STARLINK-5498,1 55633U 23021F   23356.59392828 -.00002059  00000-0 -16495-3 0  9991,2 55633  70.0018  81.9424 0002550 254.4308 105.6569 14.98307247 47251,6950.263,96.108,573.901,570.356,0.0
55633.0,STARLINK-5498,PAYLOAD,2023-12-22 15:51:21,14.98335013,0.0002813,70.0011,81.7733,271.5182,88.5655,0.00012704,1.423e-05,0.0,0 STARLINK-5498,1 55633U 23021F   23356.66066562  .00001423  00000-0  12704-3 0  9993,2 55633  70.0011  81.7733 0002813 271.5182  88.5655 14.98335013 46961,6950.177,96.107,573.997,570.087,0.0
55633.0,STARLINK-5498,PAYLOAD,2023-12-23 14:17:15,14.98323507,0.0002674,70.0,79.4152,262.0701,98.0154,-4.4671e-05,-6.26e-06,0.0,0 STARLINK-5498,1 55633U 23021F   23357.59531464 -.00000626  00000-0 -44671-4 0  9999,2 55633  70.0000  79.4152 0002674 262.0701  98.0154 14.98323507 47400,6950.213,96.107,573.936,570.219,0.0
55633.0,STARLINK-5498,PAYLOAD,2023-12-23 15:53:25,14.98290423,0.0003146,70.0001,79.2475,270.4998,89.5801,-0.00047551,-5.756e-05,0.0,0 STARLINK-5498,1 55633U 23021F   23357.66210269 -.00005756  00000-0 -47551-3 0  9992,2 55633  70.0001  79.2475 0003146 270.4998  89.5801 14.98290423 47115,6950.315,96.11,574.367,569.994,0.0
55633.0,STARLINK-5498,PAYLOAD,2023-12-24 04:42:26,14.98333069,0.0002697,70.0008,77.8998,263.3805,96.7047,9.8278e-05,1.08e-05,0.0,0 STARLINK-5498,1 55633U 23021F   23358.19614342  .00001080  00000-0  98278-4 0  9998,2 55633  70.0008  77.8998 0002697 263.3805  96.7047 14.98333069 47198,6950.183,96.107,573.923,570.174,0.0
55633.0,STARLINK-5498,PAYLOAD,2023-12-24 14:19:14,14.98345951,0.000255,70.0009,76.8904,263.0034,97.0835,-5.1928e-05,-7.13e-06,0.0,0 STARLINK-5498,1 55633U 23021F   23358.59669734 -.00000713  00000-0 -51928-4 0  9992,2 55633  70.0009  76.8904 0002550 263.0034  97.0835 14.98345951 47556,6950.144,96.106,573.781,570.236,0.0
55633.0,STARLINK-5498,PAYLOAD,2023-12-24 15:55:22,14.98339022,0.000289,70.0005,76.7219,268.7193,91.3635,0.00013472,1.515e-05,0.0,0 STARLINK-5498,1 55633U 23021F   23358.66345748  .00001515  00000-0  13472-3 0  9996,2 55633  70.0005  76.7219 0002890 268.7193  91.3635 14.98339022 47563,6950.165,96.106,574.039,570.021,0.0
